[{"OBJECT_NAME":"LEMUR-2-DEMBITZ","OBJECT_ID":"2017-042T","EPOCH":"2026-03-09T11:23:53.232288","MEAN_MOTION":15.26947128,"ECCENTRICITY":0.00069617,"INCLINATION":97.3807,"RA_OF_ASC_NODE":250.9241,"ARG_OF_PERICENTER":17.1421,"MEAN_ANOMALY":343.0051,"EPHEMERIS_TYPE":0,"CLASSIFICATION_TYPE":"U","NORAD_CAT_ID":42842,"ELEMENT_SET_NO":999,"REV_AT_EPOCH":47311,"BSTAR":0.00076560825,"MEAN_MOTION_DOT":0.00020231,"MEAN_MOTION_DDOT":0},{"OBJECT_NAME":"STARLINK-32420","OBJECT_ID":"2024-207V","EPOCH":"2026-03-09T22:33:23.291424","MEAN_MOTION":15.27613225,"ECCENTRICITY":0.00019085,"INCLINATION":43.0006,"RA_OF_ASC_NODE":280.0405,"ARG_OF_PERICENTER":276.6086,"MEAN_ANOMALY":83.4549,"EPHEMERIS_TYPE":0,"CLASSIFICATION_TYPE":"U","NORAD_CAT_ID":61931,"ELEMENT_SET_NO":999,"REV_AT_EPOCH":7476,"BSTAR":0.00099763493,"MEAN_MOTION_DOT":0.00027321,"MEAN_MOTION_DDOT":0}]
